ONEWEB-0258             
1 48976U 21060K   25339.23610718  .00000074  00000+0  15873-3 0  9990
2 48976  87.9036 267.4067 0001695  71.5470 288.5845 13.16594334214079
ONEWEB-0259             
1 48977U 21060L   25339.30576901 -.00000027  00000+0 -10458-3 0  9998
2 48977  87.9042 267.3864 0001888  71.1260 289.0075 13.16594123214110
ONEWEB-0260             
1 48978U 21060M   25339.29706572 -.00000023  00000+0 -94495-4 0  9996
2 48978  87.9030 267.4029 0001870  87.5246 272.6099 13.16593638214099
ONEWEB-0261             
1 48979U 21060N   25339.26697006  .00000093  00000+0  20856-3 0  9999
2 48979  87.9031 267.4108 0002144  73.6444 286.4923 13.16592322214144
ONEWEB-0262             
1 48980U 21060P   25339.24718845  .00000142  00000+0  33702-3 0  9993
2 48980  87.9041 267.3873 0001796  64.5865 295.5451 13.16594537214106
ONEWEB-0263             
1 48981U 21060Q   25339.27885358  .00000038  00000+0  64648-4 0  9999
2 48981  87.9032 267.3962 0002113  70.3131 289.8228 13.16595129214073
ONEWEB-0264             
1 48982U 21060R   25339.24005254  .00000071  00000+0  15229-3 0  9993
2 48982  87.9031 267.4074 0001949  78.8085 281.3265 13.16596431214070
ONEWEB-0266             
1 48984U 21060T   25339.26144126  .00000121  00000+0  28233-3 0  9994
2 48984  87.9039 267.3888 0001618  71.6656 288.4651 13.16594749214066
